{
  "type": "FeatureCollection",
  "features": [
    {
      "type": "Feature",
      "properties": {
        "norad_id": 66610,
        "name": "STARLINK-35680",
        "group": "last-30-days",
        "lat": -40.70875569676126,
        "lon": 129.26527286869577,
        "alt_km": 344.99643666140764,
        "timestamp": "2025-12-04T10:51:48.877342+00:00",
        "meta_object_name": "STARLINK-35680",
        "meta_object_id": "2025-270Y",
        "meta_epoch": "2025-12-04T03:42:25.331904",
        "meta_mean_motion": 15.75092921,
        "meta_eccentricity": 0.0003122,
        "meta_inclination": 42.9982,
        "meta_ra_of_asc_node": 243.6469,
        "meta_arg_of_pericenter": 250.5406,
        "meta_mean_anomaly": 109.5126,
        "meta_ephemeris_type": 0,
        "meta_classification_type": "U",
        "meta_norad_cat_id": 66610,
        "meta_element_set_no": 999,
        "meta_rev_at_epoch": 311,
        "meta_bstar": 0.0020651,
        "meta_mean_motion_dot": 0.00330274,
        "meta_mean_motion_ddot": 0,
        "tle_line1": "1 66610U 25270Y   25338.15445986  .00330274  00000+0  20651-2 0  9992",
        "tle_line2": "2 66610  42.9982 243.6469 0003122 250.5406 109.5126 15.75092921  3119"
      },
      "geometry": {
        "type": "Point",
        "coordinates": [
          129.26527286869577,
          -40.70875569676126
        ]
      }
    },
    {
      "type": "Feature",
      "properties": {
        "norad_id": 66611,
        "name": "STARLINK-35583",
        "group": "last-30-days",
        "lat": -40.70999562339927,
        "lon": 129.26997126763607,
        "alt_km": 346.50343604919453,
        "timestamp": "2025-12-04T10:51:48.877352+00:00",
        "meta_object_name": "STARLINK-35583",
        "meta_object_id": "2025-270Z",
        "meta_epoch": "2025-12-04T00:39:47.359872",
        "meta_mean_motion": 15.75261982,
        "meta_eccentricity": 0.0002117,
        "meta_inclination": 42.9983,
        "meta_ra_of_asc_node": 244.4157,
        "meta_arg_of_pericenter": 269.8179,
        "meta_mean_anomaly": 90.2447,
        "meta_ephemeris_type": 0,
        "meta_classification_type": "U",
        "meta_norad_cat_id": 66611,
        "meta_element_set_no": 999,
        "meta_rev_at_epoch": 309,
        "meta_bstar": -0.0019238,
        "meta_mean_motion_dot": -0.00288953,
        "meta_mean_motion_ddot": 0,
        "tle_line1": "1 66611U 25270Z   25338.02763148 -.00288953  00000+0 -19238-2 0  9999",
        "tle_line2": "2 66611  42.9983 244.4157 0002117 269.8179  90.2447 15.75261982  3091"
      },
      "geometry": {
        "type": "Point",
        "coordinates": [
          129.26997126763607,
          -40.70999562339927
        ]
      }
    },
    {
      "type": "Feature",
      "properties": {
        "norad_id": 66612,
        "name": "STARLINK-36039",
        "group": "last-30-days",
        "lat": -41.93584795087518,
        "lon": 136.4339608263995,
        "alt_km": 348.8073649699736,
        "timestamp": "2025-12-04T10:51:48.877365+00:00",
        "meta_object_name": "STARLINK-36039",
        "meta_object_id": "2025-270AA",
        "meta_epoch": "2025-12-04T02:09:36.769824",
        "meta_mean_motion": 15.75646601,
        "meta_eccentricity": 0.0002828,
        "meta_inclination": 42.9982,
        "meta_ra_of_asc_node": 244.0208,
        "meta_arg_of_pericenter": 296.2348,
        "meta_mean_anomaly": 63.823,
        "meta_ephemeris_type": 0,
        "meta_classification_type": "U",
        "meta_norad_cat_id": 66612,
        "meta_element_set_no": 999,
        "meta_rev_at_epoch": 299,
        "meta_bstar": -0.013242,
        "meta_mean_motion_dot": -0.0182928,
        "meta_mean_motion_ddot": 0,
        "tle_line1": "1 66612U 25270AA  25338.09000891 -.01829280  00000+0 -13242-1 0  9999",
        "tle_line2": "2 66612  42.9982 244.0208 0002828 296.2348  63.8230 15.75646601  2994"
      },
      "geometry": {
        "type": "Point",
        "coordinates": [
          136.4339608263995,
          -41.93584795087518
        ]
      }
    },
    {
      "type": "Feature",
      "properties": {
        "norad_id": 66613,
        "name": "STARLINK-36037",
        "group": "last-30-days",
        "lat": -42.72556104625176,
        "lon": 144.1792925231216,
        "alt_km": 340.46645152077326,
        "timestamp": "2025-12-04T10:51:48.877375+00:00",
        "meta_object_name": "STARLINK-36037",
        "meta_object_id": "2025-270AB",
        "meta_epoch": "2025-12-03T10:57:19.045152",
        "meta_mean_motion": 15.77412165,
        "meta_eccentricity": 0.0004122,
        "meta_inclination": 43.0001,
        "meta_ra_of_asc_node": 247.8703,
        "meta_arg_of_pericenter": 349.4174,
        "meta_mean_anomaly": 10.6608,
        "meta_ephemeris_type": 0,
        "meta_classification_type": "U",
        "meta_norad_cat_id": 66613,
        "meta_element_set_no": 999,
        "meta_rev_at_epoch": 289,
        "meta_bstar": 0.00072767216,
        "meta_mean_motion_dot": 0.00125531,
        "meta_mean_motion_ddot": 0,
        "tle_line1": "1 66613U 25270AB  25337.45647043  .00125531  00000+0  72767-3 0  9999",
        "tle_line2": "2 66613  43.0001 247.8703 0004122 349.4174  10.6608 15.77412165  2893"
      },
      "geometry": {
        "type": "Point",
        "coordinates": [
          144.1792925231216,
          -42.72556104625176
        ]
      }
    },
    {
      "type": "Feature",
      "properties": {
        "norad_id": 66614,
        "name": "STARLINK-36040",
        "group": "last-30-days",
        "lat": -42.27947359236083,
        "lon": 139.19861501603333,
        "alt_km": 346.5944285633723,
        "timestamp": "2025-12-04T10:51:48.877385+00:00",
        "meta_object_name": "STARLINK-36040",
        "meta_object_id": "2025-270AC",
        "meta_epoch": "2025-12-04T02:09:10.048896",
        "meta_mean_motion": 15.75155658,
        "meta_eccentricity": 0.0001581,
        "meta_inclination": 42.9982,
        "meta_ra_of_asc_node": 244.0184,
        "meta_arg_of_pericenter": 273.7322,
        "meta_mean_anomaly": 86.3367,
        "meta_ephemeris_type": 0,
        "meta_classification_type": "U",
        "meta_norad_cat_id": 66614,
        "meta_element_set_no": 999,
        "meta_rev_at_epoch": 283,
        "meta_bstar": -0.0003448,
        "meta_mean_motion_dot": -0.00053378,
        "meta_mean_motion_ddot": 0,
        "tle_line1": "1 66614U 25270AC  25338.08969964 -.00053378  00000+0 -34480-3 0  9990",
        "tle_line2": "2 66614  42.9982 244.0184 0001581 273.7322  86.3367 15.75155658  2837"
      },
      "geometry": {
        "type": "Point",
        "coordinates": [
          139.19861501603333,
          -42.27947359236083
        ]
      }
    },
    {
      "type": "Feature",
      "properties": {
        "norad_id": 66615,
        "name": "STARLINK-35988",
        "group": "last-30-days",
        "lat": -42.871177273389804,
        "lon": 146.8412166554883,
        "alt_km": 331.6137586872992,
        "timestamp": "2025-12-04T10:51:48.877397+00:00",
        "meta_object_name": "STARLINK-35988",
        "meta_object_id": "2025-270AD",
        "meta_epoch": "2025-12-04T00:37:22.745280",
        "meta_mean_motion": 15.77540776,
        "meta_eccentricity": 0.0012646,
        "meta_inclination": 42.9993,
        "meta_ra_of_asc_node": 244.4008,
        "meta_arg_of_pericenter": 273.4991,
        "meta_mean_anomaly": 86.4432,
        "meta_ephemeris_type": 0,
        "meta_classification_type": "U",
        "meta_norad_cat_id": 66615,
        "meta_element_set_no": 999,
        "meta_rev_at_epoch": 282,
        "meta_bstar": 0.0020155,
        "meta_mean_motion_dot": 0.00361862,
        "meta_mean_motion_ddot": 0,
        "tle_line1": "1 66615U 25270AD  25338.02595770  .00361862  00000+0  20155-2 0  9996",
        "tle_line2": "2 66615  42.9993 244.4008 0012646 273.4991  86.4432 15.77540776  2826"
      },
      "geometry": {
        "type": "Point",
        "coordinates": [
          146.8412166554883,
          -42.871177273389804
        ]
      }
    },
    {
      "type": "Feature",
      "properties": {
        "norad_id": 66616,
        "name": "STARLINK-35391",
        "group": "last-30-days",
        "lat": -42.53335929866742,
        "lon": 141.73247312605753,
        "alt_km": 346.34939936507453,
        "timestamp": "2025-12-04T10:51:48.877410+00:00",
        "meta_object_name": "STARLINK-35391",
        "meta_object_id": "2025-270AE",
        "meta_epoch": "2025-12-04T02:08:40.786080",
        "meta_mean_motion": 15.75136622,
        "meta_eccentricity": 0.0002006,
        "meta_inclination": 42.9984,
        "meta_ra_of_asc_node": 244.0161,
        "meta_arg_of_pericenter": 260.4817,
        "meta_mean_anomaly": 99.5825,
        "meta_ephemeris_type": 0,
        "meta_classification_type": "U",
        "meta_norad_cat_id": 66616,
        "meta_element_set_no": 999,
        "meta_rev_at_epoch": 310,
        "meta_bstar": -0.00039567,
        "meta_mean_motion_dot": -0.00061081,
        "meta_mean_motion_ddot": 0,
        "tle_line1": "1 66616U 25270AE  25338.08936095 -.00061081  00000+0 -39567-3 0  9992",
        "tle_line2": "2 66616  42.9984 244.0161 0002006 260.4817  99.5825 15.75136622  3107"
      },
      "geometry": {
        "type": "Point",
        "coordinates": [
          141.73247312605753,
          -42.53335929866742
        ]
      }
    }
  ]
}